QZS-3 (MICHIBIKI-3)     
1 42917U 17048A   26198.69697698 -.00000357  00000+0  00000+0 0  9993
2 42917   0.0619 212.0826 0002632 274.5443 186.8346  1.00271120 32560
AMAZONAS 5              
1 42934U 17053A   26198.46971395 -.00000292  00000+0  00000+0 0  9990
2 42934   0.0358 319.0342 0001067 125.0923 319.2528  1.00271371 32342
ASIASAT 9               
1 42942U 17057A   26198.64852716 -.00000369  00000+0  00000+0 0  9993
2 42942   0.0144  43.2572 0002305  64.8822 182.8986  1.00270224 32167
INTELSAT 37E (IS-37E)   
1 42950U 17059A   26198.62066082 -.00000150  00000+0  00000+0 0  9993
2 42950   0.0129  77.1082 0002608  42.6588  21.0913  1.00272848 32371
BSAT-4A                 
1 42951U 17059B   26198.71364176 -.00000359  00000+0  00000+0 0  9990
2 42951   0.0396 334.3013 0003467 109.2010 218.7630  1.00270563 32108
QZS-4 (MICHIBIKI-4)     
1 42965U 17062A   26197.72689172 -.00000353  00000+0  00000+0 0  9999
2 42965  40.0906 343.1084 0747246 268.6115  83.6927  1.00289937 32109
SES-11 (ECHOSTAR 105)   
1 42967U 17063A   26198.60358742 -.00000099  00000+0  00000+0 0  9993
2 42967   0.0306 310.2151 0002748 154.7580 302.7754  1.00271327 32021
KOREASAT 5A             
1 42984U 17067A   26198.71364176 -.00000367  00000+0  00000+0 0  9994
2 42984   0.0244 304.5971 0000727 162.3499 198.6066  1.00268503 31834
ALCOMSAT 1              
1 43039U 17078A   26198.47682065 -.00000196  00000+0  00000+0 0  9991
2 43039   0.0467 259.1246 0002258 219.0849 323.9109  1.00272681 31599
SBIRS GEO-3 (USA 282)   
1 43162U 18009A   26198.39697553  .00000118  00000+0  00000+0 0  9995
2 43162   2.2063  13.5110 0001829  98.8596 166.3539  1.00271392 31144
AL YAH 3                
1 43174U 18012A   26198.62040082 -.00000166  00000+0  00000+0 0  9991
2 43174   1.6286  82.7400 0003622  31.4928  24.4252  1.00270652 31157
SES-14                  
1 43175U 18012B   26198.54364795 -.00000288  00000+0  00000+0 0  9998
2 43175   0.0127  32.3527 0000873  80.6669 330.5390  1.00271444  7336
GOES 17                 
1 43226U 18022A   26198.39272483 -.00000193  00000+0  00000+0 0  9996
2 43226   1.0128  85.2242 0000597  72.6391 189.2281  1.00270880 30722
HISPASAT 30W-6          
1 43228U 18023A   26198.40451154 -.00000226  00000+0  00000+0 0  9992
2 43228   0.0412  49.3183 0005119  43.3113 318.2326  1.00272100 30705
SUPERBIRD-B3            
1 43271U 18033A   26198.58512733 -.00000102  00000+0  00000+0 0  9994
2 43271   0.0183  48.2012 0001132  81.3954 178.4479  1.00271025 30365
HYLAS 4                 
1 43272U 18033B   26198.47517397 -.00000243  00000+0  00000+0 0  9990
2 43272   0.0400 246.0287 0000630 244.7723 302.0564  1.00271541 30364
IRNSS-1I                
1 43286U 18035A   26197.74975302  .00000060  00000+0  00000+0 0  9996
2 43286  28.8220  73.7347 0018408 178.6594   7.1470  1.00272376 30379
USA 283                 
1 43339U 18036A   26196.55391690  .00000000  00000+0  00000+0 0  9990
2 43339   0.0219  73.5495 0000851 143.9027  49.4517  1.00269348 25571
COSMOS 2526             
1 43432U 18037A   26196.01215684 -.00000354  00000+0  00000+0 0  9997
2 43432   0.0358 106.6288 0000821 157.1060 161.5486  1.00268298 30231
APSTAR-6C               
1 43450U 18041A   26198.65086718 -.00000327  00000+0  00000+0 0  9998
2 43450   0.0526 292.8057 0000428 310.9892  59.9640  1.00269827 30113
BANGABANDHUSAT-1        
1 43463U 18044A   26198.70808690 -.00000372  00000+0  00000+0 0  9992
2 43463   0.0294  96.4004 0001820  22.1009 191.0217  1.00273410 30018
SES-12                  
1 43488U 18049A   26198.58031103 -.00000279  00000+0  00000+0 0  9993
2 43488   0.0103  20.8487 0000738 239.6368 338.8141  1.00271742 29729
FENGYUN 2H              
1 43491U 18050A   26198.63998369 -.00000137  00000+0  00000+0 0  9994
2 43491   3.1079  78.7138 0002281 133.4643  32.7622  1.00266974 29743
BEIDOU-2 IGSO-7         
1 43539U 18057A   26197.82826650 -.00000084  00000+0  00000+0 0  9998
2 43539  55.1987 162.7987 0104914 237.9691 299.1450  1.00242392 29427
TELSTAR 19V             
1 43562U 18059A   26198.54061462 -.00000289  00000+0  00000+0 0  9995
2 43562   0.0266 145.6010 0002692 336.7624 304.6038  1.00269947 29444
TELKOM 4 (MERAH PUTIH)  
1 43587U 18064A   26198.64573604  .00000000  00000+0  00000+0 0  9995
2 43587   0.0164  65.6316 0001207  50.3051 159.9912  1.00270230 29182
TELSTAR 18V             
1 43611U 18069A   26198.65164719 -.00000303  00000+0  00000+0 0  9999
2 43611   0.0249 291.6186 0001786 186.8674 189.5709  1.00269925 28943
AZERSPACE 2 (IS-38)     
1 43632U 18074A   26198.49068736  .00000000  00000+0  00000+0 0  9995
2 43632   0.0225  57.4459 0001457  53.1326  46.4993  1.00270637 28753
HORIZONS-3E             
1 43633U 18074B   26198.60947359 -.00000040  00000+0  00000+0 0  9991
2 43633   0.0397 248.7471 0000746  38.5602  36.5111  1.00271240 28648
AEHF-4 (USA 288)        
1 43651U 18079A   26198.56220398 -.00000285  00000+0  00000+0 0  9999
2 43651   1.4372   5.7588 0059245 354.4849  69.9963  1.00273896 28607
BEIDOU-3 G1             
1 43683U 18085A   26198.58469399 -.00000120  00000+0  00000+0 0  9997
2 43683   2.9434  96.5465 0008018 356.8784 212.4352  1.00272429 28366
GSAT-29                 
1 43698U 18089A   26198.68794742  .00000076  00000+0  00000+0 0  9990
2 43698   0.0421 234.8742 0003091 223.9106 139.4546  1.00268096 28098
