OBJECT_NAME,OBJECT_ID,EPOCH,MEAN_MOTION,ECCENTRICITY,INCLINATION,RA_OF_ASC_NODE,ARG_OF_PERICENTER,MEAN_ANOMALY,EPHEMERIS_TYPE,CLASSIFICATION_TYPE,NORAD_CAT_ID,ELEMENT_SET_NO,REV_AT_EPOCH,BSTAR,MEAN_MOTION_DOT,MEAN_MOTION_DDOT
QZS-3 (MICHIBIKI-3),2017-048A,2026-07-17T16:43:38.811072,1.00271120,.0002632,0.0619,212.0826,274.5443,186.8346,0,U,42917,999,3256,0,-.357E-5,0
AMAZONAS 5,2017-053A,2026-07-17T11:16:23.285280,1.00271371,.0001067,0.0358,319.0342,125.0923,319.2528,0,U,42934,999,3234,0,-.292E-5,0
ASIASAT 9,2017-057A,2026-07-17T15:33:52.746624,1.00270224,.0002305,0.0144,43.2572,64.8822,182.8986,0,U,42942,999,3216,0,-.369E-5,0
INTELSAT 37E (IS-37E),2017-059A,2026-07-17T14:53:45.094848,1.00272848,.0002608,0.0129,77.1082,42.6588,21.0913,0,U,42950,999,3237,0,-.15E-5,0
BSAT-4A,2017-059B,2026-07-17T17:07:38.648064,1.00270563,.0003467,0.0396,334.3013,109.2010,218.7630,0,U,42951,999,3210,0,-.359E-5,0
QZS-4 (MICHIBIKI-4),2017-062A,2026-07-16T17:26:43.444608,1.00289937,.07472466,40.0906,343.1084,268.6115,83.6927,0,U,42965,999,3210,0,-.353E-5,0
SES-11 (ECHOSTAR 105),2017-063A,2026-07-17T14:29:09.953088,1.00271327,.0002748,0.0306,310.2151,154.7580,302.7754,0,U,42967,999,3202,0,-.99E-6,0
KOREASAT 5A,2017-067A,2026-07-17T17:07:38.648064,1.00268503,.0000727,0.0244,304.5971,162.3499,198.6066,0,U,42984,999,3183,0,-.367E-5,0
ALCOMSAT 1,2017-078A,2026-07-17T11:26:37.304160,1.00272681,.0002258,0.0467,259.1246,219.0849,323.9109,0,U,43039,999,3159,0,-.196E-5,0
SBIRS GEO-3 (USA 282),2018-009A,2026-07-17T09:31:38.685792,1.00271392,.0001829,2.2063,13.5110,98.8596,166.3539,0,U,43162,999,3114,0,.118E-5,0
AL YAH 3,2018-012A,2026-07-17T14:53:22.630848,1.00270652,.0003622,1.6286,82.7400,31.4928,24.4252,0,U,43174,999,3115,0,-.166E-5,0
SES-14,2018-012B,2026-07-17T13:02:51.182880,1.00271444,.0000873,0.0127,32.3527,80.6669,330.5390,0,U,43175,999,733,0,-.288E-5,0
GOES 17,2018-022A,2026-07-17T09:25:31.425312,1.00270880,.0000597,1.0128,85.2242,72.6391,189.2281,0,U,43226,999,3072,0,-.193E-5,0
HISPASAT 30W-6,2018-023A,2026-07-17T09:42:29.797056,1.00272100,.0005119,0.0412,49.3183,43.3113,318.2326,0,U,43228,999,3070,0,-.226E-5,0
SUPERBIRD-B3,2018-033A,2026-07-17T14:02:35.001312,1.00271025,.0001132,0.0183,48.2012,81.3954,178.4479,0,U,43271,999,3036,0,-.102E-5,0
HYLAS 4,2018-033B,2026-07-17T11:24:15.031008,1.00271541,.000063,0.0400,246.0287,244.7723,302.0564,0,U,43272,999,3036,0,-.243E-5,0
IRNSS-1I,2018-035A,2026-07-16T17:59:38.660928,1.00272376,.00184089,28.8220,73.7347,178.6594,7.1470,0,U,43286,999,3037,0,.6E-6,0
USA 283,2018-036A,2026-07-15T13:17:38.420160,1.00269348,.0000851,0.0219,73.5495,143.9027,49.4517,0,U,43339,999,2557,0,0,0
COSMOS 2526,2018-037A,2026-07-15T00:17:30.350976,1.00268298,.00008216,0.0358,106.6288,157.1060,161.5486,0,U,43432,999,3023,0,-.354E-5,0
APSTAR-6C,2018-041A,2026-07-17T15:37:14.924352,1.00269827,.0000428,0.0526,292.8057,310.9892,59.9640,0,U,43450,999,3011,0,-.327E-5,0
BANGABANDHUSAT-1,2018-044A,2026-07-17T16:59:38.708160,1.00273410,.000182,0.0294,96.4004,22.1009,191.0217,0,U,43463,999,3001,0,-.372E-5,0
SES-12,2018-049A,2026-07-17T13:55:38.872992,1.00271742,.0000738,0.0103,20.8487,239.6368,338.8141,0,U,43488,999,2972,0,-.279E-5,0
FENGYUN 2H,2018-050A,2026-07-17T15:21:34.590816,1.00266974,.0002281,3.1079,78.7138,133.4643,32.7622,0,U,43491,999,2974,0,-.137E-5,0
BEIDOU-2 IGSO-7,2018-057A,2026-07-16T19:52:42.225600,1.00242392,.01049148,55.1987,162.7987,237.9691,299.1450,0,U,43539,999,2942,0,-.84E-6,0
TELSTAR 19V,2018-059A,2026-07-17T12:58:29.103168,1.00269947,.0002692,0.0266,145.6010,336.7624,304.6038,0,U,43562,999,2944,0,-.289E-5,0
TELKOM 4 (MERAH PUTIH),2018-064A,2026-07-17T15:29:51.593856,1.00270230,.0001207,0.0164,65.6316,50.3051,159.9912,0,U,43587,999,2918,0,0,0
TELSTAR 18V,2018-069A,2026-07-17T15:38:22.317216,1.00269925,.0001786,0.0249,291.6186,186.8674,189.5709,0,U,43611,999,2894,0,-.303E-5,0
AZERSPACE 2 (IS-38),2018-074A,2026-07-17T11:46:35.387904,1.00270637,.0001457,0.0225,57.4459,53.1326,46.4993,0,U,43632,999,2875,0,0,0
HORIZONS-3E,2018-074B,2026-07-17T14:37:38.518176,1.00271240,.0000746,0.0397,248.7471,38.5602,36.5111,0,U,43633,999,2864,0,-.4E-6,0
AEHF-4 (USA 288),2018-079A,2026-07-17T13:29:34.423872,1.00273896,.0059245,1.4372,5.7588,354.4849,69.9963,0,U,43651,999,2860,0,-.285E-5,0
BEIDOU-3 G1,2018-085A,2026-07-17T14:01:57.560736,1.00272429,.0008018,2.9434,96.5465,356.8784,212.4352,0,U,43683,999,2836,0,-.12E-5,0
GSAT-29,2018-089A,2026-07-17T16:30:38.657088,1.00268096,.0003091,0.0421,234.8742,223.9106,139.4546,0,U,43698,999,2809,0,.76E-6,0
